RADUGA 1 [-]            
1 08513U 75123A   21362.86919122 -.00000125  00000+0  00000+0 0  9994
2 08513   6.9664 290.9277 0006509 213.2547 347.9898  1.00251930178454
RADUGA 2 [-]            
1 09416U 76092A   21363.43978419  .00000035  00000+0  00000+0 0  9990
2 09416   7.6237 292.8461 0027367 352.0232  36.0444  1.00260971112990
RADUGA 3 [-]            
1 10159U 77071A   21363.30241534 -.00000255  00000+0  00000+0 0  9996
2 10159   8.2357 295.3485 0008269 234.3364 131.7137  1.00343501160691
RADUGA 4 [-]            
1 10987U 78073A   21362.86121052 -.00000050  00000+0  00000+0 0  9993
2 10987   8.8488 298.7010 0009322 355.0271 188.7977  1.00192629103246
RADUGA 5 [-]            
1 11343U 79035A   21363.36974788 -.00000052  00000+0  00000+0 0  9999
2 11343   9.2990 301.3434 0005576 156.1071 206.4286  1.00296011113008
RADUGA 6 [-]            
1 11708U 80016A   21362.93428340  .00000140  00000+0  00000+0 0  9992
2 11708   9.6458 304.2881 0001724 193.9073 343.8366  1.00231088105803
RADUGA 7 [-]            
1 12003U 80081A   21363.41597236 -.00000233  00000+0  00000+0 0  9992
2 12003   9.8232 306.1596 0009616 265.7118 318.7807  1.00371406106951
RADUGA 8 [-]            
1 12351U 81027A   21363.18521587 -.00000028  00000+0  00000+0 0  9991
2 12351  10.1499 306.7763 0082002 222.5720 348.2730  1.00354550106177
RADUGA 9 [-]            
1 12618U 81069A   21363.50729118  .00000155  00000+0  00000+0 0  9999
2 12618  10.3536 309.5883 0003009 122.7151 251.2152  1.00224631 30993
RADUGA 10 [-]           
1 12897U 81102A   21363.44004584  .00000011  00000+0  00000+0 0  9993
2 12897  10.4361 310.5219 0004621 169.4678 202.0406  1.00281824100998
RADUGA 11 [-]           
1 13669U 82113A   21363.58206249 -.00000174  00000+0  00000+0 0  9992
2 13669  12.4060 323.7552 0037454 249.5501 256.0520  0.97710268105608
RADUGA 12 [-]           
1 13974U 83028A   21363.44196465 -.00000080  00000+0  00000+0 0  9996
2 13974  11.5195 320.0089 0002924  79.0865 292.8978  1.00248895153036
RADUGA 13 [-]           
1 14307U 83088A   21363.62873678 -.00000059  00000+0  00000+0 0  9997
2 14307  12.6401 325.3221 0016651  37.5596 178.0804  0.98173832102937
RADUGA 14 [-]           
1 14725U 84016A   21363.44091802 -.00000041  00000+0  00000+0 0  9995
2 14725  11.7003 323.6501 0003995 116.5625 245.9956  1.00295729101754
RADUGA 15 [-]           
1 15057U 84063A   21363.50842501  .00000106  00000+0  00000+0 0  9994
2 15057  11.8151 324.6349 0004319 144.5258 220.3597  1.00362166124756
RADUGA 16 [-]           
1 15946U 85070A   21363.62887965  .00000111  00000+0  00000+0 0  9992
2 15946  12.2368 329.2143 0001190 112.7224 100.3043  1.00188089105870
RADUGA 17 [-]           
1 16250U 85107A   21363.14345833  .00000090  00000+0  00000+0 0  9998
2 16250  12.3520 330.5669 0011731 176.8002  19.9608  1.00165051135335
RADUGA 18 [-]           
1 16497U 86007A   21363.07577692 -.00000007  00000+0  00000+0 0  9992
2 16497  13.1420 333.2203 0073790 159.1903  30.4332  0.98812270129745
RADUGA 19 [-]           
1 17046U 86082A   21363.34262299 -.00000108  00000+0  00000+0 0  9992
2 17046  13.5345 337.0790 0011943 138.7958  42.0156  0.98460075126858
RADUGA 20 [-]           
1 17611U 87028A   21363.37670771 -.00000116  00000+0  00000+0 0  9991
2 17611  15.5234 340.6238 0029281 130.6667  69.1927  0.95961728122663
RADUGA 21 [-]           
1 18631U 87100A   21363.60146215  .00000024  00000+0  00000+0 0  9999
2 18631  13.6039 338.0756 0003236 101.5247 111.7139  1.00189552124730
RADUGA 22 [-]           
1 19596U 88095A   21363.37916745 -.00000363  00000+0  00000+0 0  9998
2 19596  13.5498 342.2695 0005304 122.0271 250.1724  1.00338117105304
RADUGA 23 [-]           
1 19928U 89030A   21363.05952069  .00000130  00000+0  00000+0 0  9992
2 19928  13.6734 344.0617 0020126 155.4993  21.8178  1.00212240118499
RADUGA-1 1 [-]          
1 20083U 89048A   21363.27834309 -.00000228  00000+0  00000+0 0  9994
2 20083  14.4019 347.0609 0021994 106.1326  79.2083  0.98710574115172
RADUGA 24 [-]           
1 20367U 89098A   21363.37628925 -.00000336  00000+0  00000+0 0  9990
2 20367  14.2284 346.3646 0001530  87.6280 264.7445  1.00269252116617
RADUGA 25 [-]           
1 20499U 90016A   21363.27738367 -.00000229  00000+0  00000+0 0  9990
2 20499  13.9917 346.9793 0003760 123.9266  56.2376  1.00269468116555
RADUGA 26 [-]           
1 21016U 90112A   21363.51077990  .00000038  00000+0  00000+0 0  9995
2 21016  14.2660 350.2203 0007574  75.5220 276.2031  1.00236886113909
RADUGA-1 2 [-]          
1 21038U 90116A   21363.44405788 -.00000185  00000+0  00000+0 0  9999
2 21038  14.3038 350.2945 0008709  87.1515 265.8319  1.00219538 30987
RADUGA 27 [-]           
1 21132U 91014A   21363.51016937  .00000070  00000+0  00000+0 0  9996
2 21132  14.8172 349.9399 0004053  66.5134 281.7189  1.00175145112955
RADUGA 28 [-]           
1 21821U 91087A   21363.44850602 -.00000354  00000+0  00000+0 0  9994
2 21821  14.5480 353.5779 0006336 106.8764 266.9835  1.00327507109977
RADUGA 29 [-]           
1 22557U 93013A   21363.21401794  .00000056  00000+0  00000+0 0  9999
2 22557  14.7001 357.7486 0006960  92.6062  96.3949  1.00254499105327
RADUGA 30 [-]           
1 22836U 93062A   21363.51487917 -.00000155  00000+0  00000+0 0  9998
2 22836  14.7207 359.6916 0003048 348.3660  15.8964  1.00279489 29653
RADUGA-1 3 [-]          
1 22981U 94008A   21363.51444307 -.00000148  00000+0  00000+0 0  9998
2 22981  14.7869   0.8533 0003268  70.9179 290.0518  1.00330293102133
RADUGA 31 [-]           
1 23010U 94012A   21363.07882957  .00000081  00000+0  00000+0 0  9990
2 23010  14.7517   0.8472 0005740  73.7224 104.8554  1.00225889101997
RADUGA 32 [-]           
1 23448U 94087A   21363.51461750 -.00000144  00000+0  00000+0 0  9991
2 23448  14.7050   3.5330 0003595 205.6958 153.4459  1.00279604116526
RADUGA-1 4 [-]          
1 25642U 99010A   21363.08083559  .00000016  00000+0  00000+0 0  9996
2 25642  15.1300  15.2185 0002902 284.1664 250.7783  1.00194332 83597
RADUGA-1 5 [-]          
1 26477U 00049A   21363.54771458 -.00000135  00000+0  00000+0 0  9993
2 26477  13.0256  19.7382 0005522  42.2535 313.6288  1.00205310 78064
RADUGA-1 6 [-]          
1 26936U 01045A   21363.62752916 -.00000089  00000+0  00000+0 0  9995
2 26936  13.1169  25.9622 0014419 159.8775 352.2477  0.97744490 72661
RADUGA-1 7 [-]          
1 28194U 04010A   21363.53035263 -.00000320  00000+0  00000+0 0  9995
2 28194  11.7734  32.8945 0001305 256.4342  99.5868  1.00364675 65058
RADUGA-1M 1 [-]         
1 32373U 07058A   21363.35675235 -.00000088  00000+0  00000+0 0  9994
2 32373   6.5209  65.2250 0002473 316.1208 212.2797  0.99399868 36188
RADUGA-1 8 [-]          
1 34264U 09010A   21363.35893281  .00000050  00000+0  00000+0 0  9996
2 34264   8.8942  55.4068 0014457 353.3682 197.0436  0.99826940 46895
RADUGA-1M 2 [+]         
1 36358U 10002A   21363.44405788 -.00000166  00000+0  00000+0 0  9995
2 36358   0.0759 259.1880 0002959   7.3606  76.4339  1.00271864 33735
RADUGA-1M 3 [+]         
1 39375U 13062A   21363.57758914  .00000172  00000+0  00000+0 0  9998
2 39375   1.8104  91.7000 0002489  43.4214 206.0230  1.00272853 29777
